[{"OBJECT_NAME":"LAPAN-A3","OBJECT_ID":"2016-040E","EPOCH":"2026-03-09T23:01:57.724896","MEAN_MOTION":15.3238951,"ECCENTRICITY":0.00109839,"INCLINATION":97.1488,"RA_OF_ASC_NODE":68.4254,"ARG_OF_PERICENTER":22.062,"MEAN_ANOMALY":338.1093,"EPHEMERIS_TYPE":0,"CLASSIFICATION_TYPE":"U","NORAD_CAT_ID":41603,"ELEMENT_SET_NO":999,"REV_AT_EPOCH":53961,"BSTAR":0.00017567445,"MEAN_MOTION_DOT":5.428e-5,"MEAN_MOTION_DDOT":0},{"OBJECT_NAME":"STARLINK-34435","OBJECT_ID":"2025-137J","EPOCH":"2026-03-09T22:52:47.555616","MEAN_MOTION":15.30203374,"ECCENTRICITY":0.00012293,"INCLINATION":53.1582,"RA_OF_ASC_NODE":334.1271,"ARG_OF_PERICENTER":127.801,"MEAN_ANOMALY":232.3102,"EPHEMERIS_TYPE":0,"CLASSIFICATION_TYPE":"U","NORAD_CAT_ID":64602,"ELEMENT_SET_NO":999,"REV_AT_EPOCH":4077,"BSTAR":0.00059822636,"MEAN_MOTION_DOT":0.00017402,"MEAN_MOTION_DDOT":0}]
